id,type,address,number,postal_code,municipality,province,location,public,available,hours,complete_address,latitude,longitude
318.0,,Interleuvenlaan ,58,3001.0,Leuven,Vlaams-Brabant,,Y,,,"58 Interleuvenlaan, Leuven, Vlaams-Brabant, Belgium",50.8476423,4.737563
323.0,,Interleuven,58,3001.0,Leuven,Vlaams-Brabant,,Y,,,"58 Interleuven, Leuven, Vlaams-Brabant, Belgium",50.8826624,4.6967705
385.0,,Kolonel Begaultlaan ,15,3012.0,Wilsele,Vlaams-Brabant,,Y,,,"15 Kolonel Begaultlaan, Wilsele, Vlaams-Brabant, Belgium",50.89191539999999,4.7058934
419.0,,Katjeswilgenlaan ,,3010.0,Kessel-Lo,Vlaams-Brabant,,N,,,"Katjeswilgenlaan, Kessel-Lo, Vlaams-Brabant, Belgium",50.8936461,4.7186837
427.0,,Tervuursevest,101,3001.0,Heverlee,Vlaams-Brabant,,Y,,,"101 Tervuursevest, Heverlee, Vlaams-Brabant, Belgium",50.869499,4.6931907
474.0,,Vlamingenstraat,83,3000.0,Leuven,Vlaams-Brabant,,Y,,,"83 Vlamingenstraat, Leuven, Vlaams-Brabant, Belgium",50.8743307,4.7017286
535.0,,Site Philips - Ubicenter,208,3000.0,Leuven,Vlaams-Brabant,,N,,,"208 Site Philips - Ubicenter, Leuven, Vlaams-Brabant, Belgium",50.8670637,4.7127525
576.0,,Herestraat,19,3000.0,Leuven,Vlaams-Brabant,,N,,,"19 Herestraat, Leuven, Vlaams-Brabant, Belgium",50.8778935,4.682384799999999
606.0,,Groot Begijnhof,14,3000.0,Leuven,Vlaams-Brabant,,Y,,,"14 Groot Begijnhof, Leuven, Vlaams-Brabant, Belgium",50.8713027,4.6964705
806.0,,Philipssite,5,3001.0,Leuven,Vlaams-Brabant,,Y,,,"5 Philipssite, Leuven, Vlaams-Brabant, Belgium",50.867102,4.7127446
994.0,,Provincieplein,1,3010.0,Leuven,Vlaams-Brabant,,Y,,,"1 Provincieplein, Leuven, Vlaams-Brabant, Belgium",50.8769717,4.7168358
1052.0,,Vaartstraat,46,3000.0,Leuven,Vlaams-Brabant,,Y,,,"46 Vaartstraat, Leuven, Vlaams-Brabant, Belgium",50.88228909999999,4.701441099999999
1230.0,,Kolonel Begaultlaan ,,3012.0,Leuven,Vlaams-Brabant,,Y,,,"Kolonel Begaultlaan, Leuven, Vlaams-Brabant, Belgium",50.8958652,4.7062523
1424.0,,Martelarenplein ,16,3000.0,Leuven,Vlaams-Brabant,,N,,,"16 Martelarenplein, Leuven, Vlaams-Brabant, Belgium",50.8813682,4.7156895
1554.0,,Interleuvenlaan,68,3001.0,Leuven,Vlaams-Brabant,,Y,,,"68 Interleuvenlaan, Leuven, Vlaams-Brabant, Belgium",50.85112360000001,4.7330828
1904.0,,Stadionlaan,4,3010.0,Kessel-Lo,Vlaams-Brabant,zwembad 1e verd. EHBO lokaal,Y,,,"4 Stadionlaan, Kessel-Lo, Vlaams-Brabant, Belgium",50.8823756,4.734445700000001
1905.0,,Aarschotsesteenweg,730,3012.0,Wilsele,Vlaams-Brabant,,Y,,,"730 Aarschotsesteenweg, Wilsele, Vlaams-Brabant, Belgium",50.9281215,4.724020299999999
1938.0,,Tervuursevest,113,3001.0,Heverlee,Vlaams-Brabant,naast ingang-uitgang,Y,,,"113 Tervuursevest, Heverlee, Vlaams-Brabant, Belgium",50.8705595,4.6916883
1976.0,,Vlinderlaan,3360,3360.0,Korbeek-Lo,Vlaams-Brabant,nabij onthaal,N,,,"3360 Vlinderlaan, Korbeek-Lo, Vlaams-Brabant, Belgium",50.8644573,4.7458358
2130.0,,Naamsesteenweg,955,3001.0,Heverlee,Vlaams-Brabant,aan sporthal,Y,,,"955 Naamsesteenweg, Heverlee, Vlaams-Brabant, Belgium",50.8470644,4.6958563
2156.0,,Philipssite,6,3001.0,Leuven,Vlaams-Brabant,"glvl, infobalie",Y,,,"6 Philipssite, Leuven, Vlaams-Brabant, Belgium",50.867677,4.7116128
2265.0,,Diestsesteenweg,3,3010.0,Kessel-Lo,Vlaams-Brabant,,Y,,,"3 Diestsesteenweg, Kessel-Lo, Vlaams-Brabant, Belgium",50.8883109,4.7515505
2333.0,,Brusselsestraat,52,3000.0,Leuven,Vlaams-Brabant,glvl aan hoofdingang,Y,,,"52 Brusselsestraat, Leuven, Vlaams-Brabant, Belgium",50.8839064,4.680962699999999
2334.0,,Vuurkruisenlaan,4,3000.0,Leuven,Vlaams-Brabant,glvl aan hoofdingang,Y,,,"4 Vuurkruisenlaan, Leuven, Vlaams-Brabant, Belgium",50.8858827,4.7106457
2384.0,,Diestsepoort ,6,3000.0,Leuven,Vlaams-Brabant,,N,,,"6 Diestsepoort, Leuven, Vlaams-Brabant, Belgium",50.8841416,4.7146301
2412.0,,Marie Theresiastraat,63,3000.0,Leuven,Vlaams-Brabant,aglvl gang na receptie,Y,,,"63 Marie Theresiastraat, Leuven, Vlaams-Brabant, Belgium",50.8786396,4.712077799999999
2563.0,,Tiensevest,61,3010.0,Leuven,Vlaams-Brabant,"glvl, ingang",Y,,,"61 Tiensevest, Leuven, Vlaams-Brabant, Belgium",50.874393,4.7152536
2741.0,,Aarschotsesteenweg,58,3012.0,Leuven,Vlaams-Brabant,"glvl, klantenkantoor",Y,,,"58 Aarschotsesteenweg, Leuven, Vlaams-Brabant, Belgium",50.8933532,4.7075612
3075.0,,Rijschoolstraat ,21,3000.0,Leuven,Vlaams-Brabant,glvl inkomhal,N,,,"21 Rijschoolstraat, Leuven, Vlaams-Brabant, Belgium",50.8816687,4.7031832
3076.0,,Aarschotsesteenweg ,163,3012.0,Leuven,Vlaams-Brabant,"1°verd,gang kleedkamers",N,,,"163 Aarschotsesteenweg, Leuven, Vlaams-Brabant, Belgium",50.9108976,4.7130637
3077.0,,Brandweg ,8,3012.0,Leuven,Vlaams-Brabant,glvl -  inkomhal,N,,,"8 Brandweg, Leuven, Vlaams-Brabant, Belgium",50.90354660000001,4.7022043
3078.0,,Diestsesteenweg ,288,3010.0,Leuven,Vlaams-Brabant,glvl - inkomhal,N,,,"288 Diestsesteenweg, Leuven, Vlaams-Brabant, Belgium",50.8845695,4.7313633
3079.0,,Pellenbergstraat,193,3010.0,Leuven,Vlaams-Brabant,glvl - inkomhal,Y,,,"193 Pellenbergstraat, Leuven, Vlaams-Brabant, Belgium",50.8674498,4.743396499999999
3080.0,,Hertogstraat ,180,3001.0,Leuven,Vlaams-Brabant,glvl - inkomhal,N,,,"180 Hertogstraat, Leuven, Vlaams-Brabant, Belgium",50.8560364,4.704471000000001
3081.0,,Pastoor Bellonstraat ,29,3018.0,Leuven,Vlaams-Brabant,glvl - inkomhal,N,,,"29 Pastoor Bellonstraat, Leuven, Vlaams-Brabant, Belgium",50.92585949999999,4.7063333
3082.0,,Domeinstraat ,61,3010.0,Leuven,Vlaams-Brabant,glvl - personeelslokaal,N,,,"61 Domeinstraat, Leuven, Vlaams-Brabant, Belgium",50.8988012,4.720390099999999
3083.0,,Celestijnenlaan,19,3000.0,Leuven,Vlaams-Brabant,glvl-wachtruimte bezoekers,Y,,,"19 Celestijnenlaan, Leuven, Vlaams-Brabant, Belgium",50.8718562,4.676585999999999
3185.0,,P. Van Overstraetenplein,1,3000.0,Leuven,Vlaams-Brabant,EHBO-lokaal,N,,,"1 P. Van Overstraetenplein, Leuven, Vlaams-Brabant, Belgium",50.8797741,4.7160817
3213.0,,Kardinaal Mercierlaan ,46,3001.0,Heverlee,Vlaams-Brabant,tgo secretariaat,Y,,,"46 Kardinaal Mercierlaan, Heverlee, Vlaams-Brabant, Belgium",50.868071,4.6939597
3214.0,,Domeinstraat ,61,3010.0,Kessel-Lo,Vlaams-Brabant,nst veld aan de cafetaria,N,,,"61 Domeinstraat, Kessel-Lo, Vlaams-Brabant, Belgium",50.8988012,4.720390099999999
3336.0,,Tiensevest ,170,3000.0,Leuven,Vlaams-Brabant,inkomhal,N,,,"170 Tiensevest, Leuven, Vlaams-Brabant, Belgium",50.8744331,4.714348600000001
3402.0,,Bondgenotenlaan ,145,3000.0,Leuven,Vlaams-Brabant,foyerverd 1 thv shop,N,,,"145 Bondgenotenlaan, Leuven, Vlaams-Brabant, Belgium",50.8813563,4.711944799999999
3937.0,,Technologielaan ,8,3001.0,Heverlee,Vlaams-Brabant,"EHBO-lokaal,glvl productiegeb",N,,,"8 Technologielaan, Heverlee, Vlaams-Brabant, Belgium",50.8524681,4.7300619
4417.0,,Diestsesteenweg,52,3010.0,Kessel-Lo,Vlaams-Brabant,vergaderzaal,Y,,,"52 Diestsesteenweg, Kessel-Lo, Vlaams-Brabant, Belgium",50.8834141,4.718262999999999
4427.0,,Mgr. Ladeuzeplein ,21,3000.0,Leuven,Vlaams-Brabant,EHBO-lokaal,N,,,"21 Mgr. Ladeuzeplein, Leuven, Vlaams-Brabant, Belgium",50.8782258,4.7069755
4428.0,,Celestijnenlaan ,200,3001.0,Heverlee,Vlaams-Brabant,"inkomhal, glvl",N,,,"200 Celestijnenlaan, Heverlee, Vlaams-Brabant, Belgium",50.8627473,4.6753669
4429.0,,Herestraat,49,3000.0,Leuven,Vlaams-Brabant,"glvl, naast Alma",N,,,"49 Herestraat, Leuven, Vlaams-Brabant, Belgium",50.8782805,4.668996
4430.0,,E. Van Evenstraat,4,3000.0,Leuven,Vlaams-Brabant,"receptie, glvl",N,,,"4 E. Van Evenstraat, Leuven, Vlaams-Brabant, Belgium",50.874094,4.703816
4431.0,,Tiensestraat ,41,3000.0,Leuven,Vlaams-Brabant,"links inkomhal, glvl",N,,,"41 Tiensestraat, Leuven, Vlaams-Brabant, Belgium",50.8776436,4.7041349
4432.0,,Dekenstraat ,4,3000.0,Leuven,Vlaams-Brabant,"lokaal printer, glvl",N,,,"4 Dekenstraat, Leuven, Vlaams-Brabant, Belgium",50.8740913,4.7082684
4433.0,,Charles Deberiotstraat ,24,3000.0,Leuven,Vlaams-Brabant,"achter balie, ingang",N,,,"24 Charles Deberiotstraat, Leuven, Vlaams-Brabant, Belgium",50.8763292,4.7031955
4659.0,,Interleuvenlaan ,15,3001.0,Heverlee,Vlaams-Brabant,"receptie,1° verd",Y,,,"15 Interleuvenlaan, Heverlee, Vlaams-Brabant, Belgium",50.8478666,4.732186599999999
4851.0,,Naamsestraat ,22,3000.0,Leuven,Vlaams-Brabant,"glvl,aan trap lokaal tgo univhall",N,,,"22 Naamsestraat, Leuven, Vlaams-Brabant, Belgium",50.8778857,4.7005637
4991.0,,Albert Dejonghestraat ,2,3010.0,Kessel-Lo,Vlaams-Brabant,clubhouse,N,,,"2 Albert Dejonghestraat, Kessel-Lo, Vlaams-Brabant, Belgium",50.8764651,4.7275933
5080.0,,Diestsestraat,67,3000.0,Leuven,Vlaams-Brabant,klantendienst 1ste verdiep,N,,,"67 Diestsestraat, Leuven, Vlaams-Brabant, Belgium",50.8803956,4.7047368
5147.0,,Hertogstraat ,184,3001.0,Heverlee,Vlaams-Brabant,verzorgingslokaal centr in Kwarti,N,,,"184 Hertogstraat, Heverlee, Vlaams-Brabant, Belgium",50.8555502,4.7057077
5217.0,,Technologielaan ,15,3001.0,Heverlee,Vlaams-Brabant,"gebouw C,glvl,gang nst EHBOloka",N,,,"15 Technologielaan, Heverlee, Vlaams-Brabant, Belgium",50.8528664,4.7343369
5403.0,,Kapeldreef ,,3001.0,Heverlee,Vlaams-Brabant,"Imec 1,glvl,inkomhal",N,,,"Kapeldreef, Heverlee, Vlaams-Brabant, Belgium",50.8628119,4.6723105
5404.0,,Kapeldreef,,3001.0,Heverlee,Vlaams-Brabant,,N,,,"Kapeldreef, Heverlee, Vlaams-Brabant, Belgium",50.8628119,4.6723105
5405.0,,Kapeldreef ,,3001.0,Heverlee,Vlaams-Brabant,"Imec 5- 1ste verd, JAVA corner",N,,,"Kapeldreef, Heverlee, Vlaams-Brabant, Belgium",50.8628119,4.6723105
5426.0,,Romeinse Straat ,14,3001.0,Heverlee,Vlaams-Brabant,"EHBO lokaal,glvl,kantoorgebouw",N,,,"14 Romeinse Straat, Heverlee, Vlaams-Brabant, Belgium",50.8444703,4.7370091
5433.0,,Geldenaaksebaan ,464,3001.0,Leuven,Vlaams-Brabant,hoofdingangreceptieglvl,Y,,,"464 Geldenaaksebaan, Leuven, Vlaams-Brabant, Belgium",50.84761169999999,4.7232384
5478.0,,Sint-Maartensdal ,4,3000.0,Leuven,Vlaams-Brabant,"via JP Minckelersstr,onthaal",N,,,"4 Sint-Maartensdal, Leuven, Vlaams-Brabant, Belgium",50.8830582,4.7054199
5747.0,,Smordelsplein,5,3000.0,Leuven,Vlaams-Brabant,,N,,,"5 Smordelsplein, Leuven, Vlaams-Brabant, Belgium",50.8804127,4.7019874
5752.0,,Interleuvenlaan,40,3001.0,Leuven,Vlaams-Brabant,,Y,,,"40 Interleuvenlaan, Leuven, Vlaams-Brabant, Belgium",50.8450309,4.7311424
6033.0,,Kolonel Begaultlaan ,15,3012.0,Wilsele,Vlaams-Brabant,,Y,,,"15 Kolonel Begaultlaan, Wilsele, Vlaams-Brabant, Belgium",50.89191539999999,4.7058934
6045.0,,Brabantlaan ,1,3001.0,Leuven,Vlaams-Brabant,,N,,,"1 Brabantlaan, Leuven, Vlaams-Brabant, Belgium",50.8553066,4.728376
6047.0,,Brabantlaan ,1,3001.0,Leuven,Vlaams-Brabant,,N,,,"1 Brabantlaan, Leuven, Vlaams-Brabant, Belgium",50.8553066,4.728376
6086.0,,Vital Decosterstraat,19,3000.0,Leuven,Vlaams-Brabant,,Y,,,"19 Vital Decosterstraat, Leuven, Vlaams-Brabant, Belgium",50.8795773,4.7056545
6253.0,,Louis Melsensstraat,6,3000.0,Leuven,Vlaams-Brabant,,N,,,"6 Louis Melsensstraat, Leuven, Vlaams-Brabant, Belgium",50.8809818,4.7086963
6467.0,,Brusselse Steenweg,100,3000.0,Leuven,Vlaams-Brabant,,N,,,"100 Brusselse Steenweg, Leuven, Vlaams-Brabant, Belgium",50.885645,4.6775291
6468.0,,Prof. Roger Van Overstraetenplein ,2,3000.0,Leuven,Vlaams-Brabant,,N,,,"2 Prof. Roger Van Overstraetenplein, Leuven, Vlaams-Brabant, Belgium",50.8791637,4.716279
6539.0,,Onze-Lieve-Vrouwstraat ,18,3000.0,Leuven,Vlaams-Brabant,,N,,,"18 Onze-Lieve-Vrouwstraat, Leuven, Vlaams-Brabant, Belgium",50.9050354,4.6738647
6677.0,,Arnould Nobelstraat,38,3000.0,Leuven,Vlaams-Brabant,,Y,,,"38 Arnould Nobelstraat, Leuven, Vlaams-Brabant, Belgium",50.8774564,4.7137954
7047.0,,Interleuvenlaan,,3001.0,Heverlee,Vlaams-Brabant,,Y,,,"Interleuvenlaan, Heverlee, Vlaams-Brabant, Belgium",50.8507187,4.7303674
7211.0,,Romeinse Straat ,20,3001.0,Heverlee,Vlaams-Brabant,,N,,,"20 Romeinse Straat, Heverlee, Vlaams-Brabant, Belgium",50.84546049999999,4.7381287
7212.0,,Milsestraat ,43,3053.0,Haasrode,Vlaams-Brabant,,N,,,"43 Milsestraat, Haasrode, Vlaams-Brabant, Belgium",50.831734,4.726769399999999
7224.0,,Interleuvenlaan ,17,3001.0,Heverlee,Vlaams-Brabant,,Y,,,"17 Interleuvenlaan, Heverlee, Vlaams-Brabant, Belgium",50.8468318,4.7253871
7369.0,,Andreas Vesaliusstraat ,13,3000.0,Leuven,Vlaams-Brabant,,N,,,"13 Andreas Vesaliusstraat, Leuven, Vlaams-Brabant, Belgium",50.8747859,4.7081308
7370.0,,Kasteelpark Arenberg ,10,3001.0,Heverlee,Vlaams-Brabant,,N,,,"10 Kasteelpark Arenberg, Heverlee, Vlaams-Brabant, Belgium",50.8624668,4.6861822
7371.0,,Celestijnenlaan ,200,3001.0,Heverlee,Vlaams-Brabant,,N,,,"200 Celestijnenlaan, Heverlee, Vlaams-Brabant, Belgium",50.8627473,4.6753669
7877.0,,Kapeldreef 75 ,75,3001.0,Heverlee,Vlaams-Brabant,,N,,,"75 Kapeldreef 75, Heverlee, Vlaams-Brabant, Belgium",50.8628119,4.6723105
7943.0,,Ambachtenlaan ,22,3001.0,Heverlee,Vlaams-Brabant,,N,,,"22 Ambachtenlaan, Heverlee, Vlaams-Brabant, Belgium",50.8508645,4.7153244
8376.0,,Interleuvenlaan,33,3001.0,Heverlee,Vlaams-Brabant,,Y,,,"33 Interleuvenlaan, Heverlee, Vlaams-Brabant, Belgium",50.850768,4.729934
8786.0,,Leopold Vandervelenstraat ,28,3000.0,Leuven,Vlaams-Brabant,,Y,,,"28 Leopold Vandervelenstraat, Leuven, Vlaams-Brabant, Belgium",50.8789497,4.7045671
9124.0,,Interleuvenlaan,27,3001.0,Heverlee,Vlaams-Brabant,,Y,,,"27 Interleuvenlaan, Heverlee, Vlaams-Brabant, Belgium",50.8503127,4.734019
9128.0,,Geldenaaksebaan ,277,3000.0,Leuven,Vlaams-Brabant,,Y,,,"277 Geldenaaksebaan, Leuven, Vlaams-Brabant, Belgium",50.854781,4.7203215
9132.0,,Stapelhuisplein,3,3000.0,Leuven,Vlaams-Brabant,,Y,,,"3 Stapelhuisplein, Leuven, Vlaams-Brabant, Belgium",50.8859605,4.704496199999999
9217.0,,Grote Markt,2,3000.0,Leuven,Vlaams-Brabant,,Y,,,"2 Grote Markt, Leuven, Vlaams-Brabant, Belgium",50.8793,4.700369999999999
9218.0,,Vital Decosterstraat,44,3001.0,Heverlee,Vlaams-Brabant,,Y,,,"44 Vital Decosterstraat, Heverlee, Vlaams-Brabant, Belgium",50.8811427,4.704839
9507.0,,Maria Theresiastraat,74,3000.0,Leuven,Vlaams-Brabant,,N,,,"74 Maria Theresiastraat, Leuven, Vlaams-Brabant, Belgium",50.8784211,4.712977
9535.0,,Geldenaaksebaan,227,3001.0,Heverlee,Vlaams-Brabant,,N,,,"227 Geldenaaksebaan, Heverlee, Vlaams-Brabant, Belgium",50.8617055,4.712295
9783.0,,Technologielaan,2,3001.0,Heverlee,Vlaams-Brabant,,N,,,"2 Technologielaan, Heverlee, Vlaams-Brabant, Belgium",50.8528969,4.7255083
9870.0,,Diestsestraat,165,3000.0,Leuven,Vlaams-Brabant,,N,,,"165 Diestsestraat, Leuven, Vlaams-Brabant, Belgium",50.88150109999999,4.7096178
9981.0,,Pastoor Eralystraat,2,3012.0,Wilsele,Vlaams-Brabant,,N,,,"2 Pastoor Eralystraat, Wilsele, Vlaams-Brabant, Belgium",50.9283047,4.7248107
10064.0,,Bondgenotenlaan,140,3000.0,Leuven,Vlaams-Brabant,,N,,,"140 Bondgenotenlaan, Leuven, Vlaams-Brabant, Belgium",50.88081529999999,4.7132325
10215.0,,Kardinaal Mercierlaan,46,3001.0,Heverlee,Vlaams-Brabant,,Y,,,"46 Kardinaal Mercierlaan, Heverlee, Vlaams-Brabant, Belgium",50.868071,4.6939597
10216.0,,Kardinaal Mercierlaan,46,3001.0,Heverlee,Vlaams-Brabant,,Y,,,"46 Kardinaal Mercierlaan, Heverlee, Vlaams-Brabant, Belgium",50.868071,4.6939597
10485.0,,Diestsepoort,1,3000.0,Leuven,Vlaams-Brabant,,Y,,,"1 Diestsepoort, Leuven, Vlaams-Brabant, Belgium",50.8827386,4.714049
10570.0,,Andreas Vesaliusstraat,10,3000.0,Leuven,Vlaams-Brabant,,Y,,,"10 Andreas Vesaliusstraat, Leuven, Vlaams-Brabant, Belgium",50.8741756,4.7061156
10571.0,,Rustoordlaan ,3,3010.0,Kessel-Lo,Vlaams-Brabant,,Y,,,"3 Rustoordlaan, Kessel-Lo, Vlaams-Brabant, Belgium",50.8869565,4.729686399999999
10696.0,,Abdij Van Vlierbeek,15,3010.0,Kessel-Lo,Vlaams-Brabant,,Y,,,"15 Abdij Van Vlierbeek, Kessel-Lo, Vlaams-Brabant, Belgium",50.8919487,4.734271199999999
11066.0,,Interleuvenlaan ,58,3001.0,Leuven,Vlaams-Brabant,,Y,,,"58 Interleuvenlaan, Leuven, Vlaams-Brabant, Belgium",50.8476423,4.737563
11070.0,,Interleuven,58,3001.0,Leuven,Vlaams-Brabant,,Y,,,"58 Interleuven, Leuven, Vlaams-Brabant, Belgium",50.8826624,4.6967705
11140.0,,Interleuvenlaan ,40,3001.0,Leuven,Vlaams-Brabant,,Y,,,"40 Interleuvenlaan, Leuven, Vlaams-Brabant, Belgium",50.8450309,4.7311424
11180.0,,Gaston Geenslaan,14,3001.0,Heverlee,Vlaams-Brabant,,Y,,,"14 Gaston Geenslaan, Heverlee, Vlaams-Brabant, Belgium",50.8648678,4.667943000000001
11185.0,,Diestsesteenweg,3,3010.0,Kessel-Lo,Vlaams-Brabant,,Y,,,"3 Diestsesteenweg, Kessel-Lo, Vlaams-Brabant, Belgium",50.8883109,4.7515505
11187.0,,Kolonel Begaultlaan,,3012.0,Leuven,Vlaams-Brabant,,Y,,,"Kolonel Begaultlaan, Leuven, Vlaams-Brabant, Belgium",50.8958652,4.7062523
11252.0,,Gaston Geemslaan,8,3001.0,Heverlee,Vlaams-Brabant,,Y,,,"8 Gaston Geemslaan, Heverlee, Vlaams-Brabant, Belgium",50.8654367,4.6710378
11298.0,,Keiberg,11,3053.0,Haasrode,Vlaams-Brabant,,Y,,,"11 Keiberg, Haasrode, Vlaams-Brabant, Belgium",50.829584,4.725385
11575.0,,Romeinsestraat,8,3001.0,Leuven,Vlaams-Brabant,,Y,,,"8 Romeinsestraat, Leuven, Vlaams-Brabant, Belgium",50.8455664,4.7365227
11896.0,Fixed Device,Baron Decampslaan,112,3018.0,Wijgmaal,Vlaams-Brabant,Onthaal,Y,Non-Nee,8h-19h,"112 Baron Decampslaan, Wijgmaal, Vlaams-Brabant, Belgium",50.92624,4.70195
12628.0,Fixed Device,Grauwmeer,14,3001.0,Heverlee,Vlaams-Brabant,In de inkomhal van de onderneming,N,,,"14 Grauwmeer, Heverlee, Vlaams-Brabant, Belgium",50.8457862,4.7220448
12629.0,Fixed Device,Ambachtenlaan,3230,3001.0,Leuven,Vlaams-Brabant,In de productiefaciliteiten van de onderneming,N,,,"3230 Ambachtenlaan, Leuven, Vlaams-Brabant, Belgium",50.8465918,4.716440299999999
12708.0,Fixed Device,Geldenaaksebaan,335,3001.0,Heverlee,Vlaams-Brabant,Proximus gebouw inkom,N,,,"335 Geldenaaksebaan, Heverlee, Vlaams-Brabant, Belgium",50.845606,4.728626999999999
12716.0,Fixed Device,Geldenaaksebaan,335,3001.0,Heverlee,Vlaams-Brabant,blok C inkom,N,Non-Nee,,"335 Geldenaaksebaan, Heverlee, Vlaams-Brabant, Belgium",50.845606,4.728626999999999
12800.0,Fixed Device,Vaartstraat,9,3000.0,Leuven,Vlaams-Brabant,Bistro Tribunal - aan vestiaire,N,Non-Nee,,"9 Vaartstraat, Leuven, Vlaams-Brabant, Belgium",50.8808505,4.7020005
12821.0,Fixed Device,Ambachtenlaan,,3001.0,Heverlee,Vlaams-Brabant,Delletrans - onthaalruimte,N,Non-Nee,,"Ambachtenlaan, Heverlee, Vlaams-Brabant, Belgium",50.848691,4.7182558
12929.0,Fixed Device,Vaartstraat,131,3000.0,Leuven,Vlaams-Brabant,"Cypres - gelijkvloers, doorgang naar apartement",N,Non-Nee,,"131 Vaartstraat, Leuven, Vlaams-Brabant, Belgium",50.8851678,4.7007067
12956.0,Fixed Device,Interleuvenlaan,86,3001.0,Heverlee,Vlaams-Brabant,in de inkomhal aan de voordeur,Y,enkel tijdens de kantooruren (8 - 19u),,"86 Interleuvenlaan, Heverlee, Vlaams-Brabant, Belgium",50.8514371,4.7283621
13571.0,Fixed Device,Pastoor Bellonstraat,29,3018.0,Wijgmaal,Vlaams-Brabant,Buiten - tussen kantine en kleedkamers,Y,Non-Nee,in functie van de openingsuren van het sportcomplex - Stad Leuven,"29 Pastoor Bellonstraat, Wijgmaal, Vlaams-Brabant, Belgium",50.92585949999999,4.7063333
13710.0,Fixed Device,Kardinaal Mercierlaan ,46,3001.0,Heverlee,Vlaams-Brabant,Accueil,Y,Non-Nee,,"46 Kardinaal Mercierlaan, Heverlee, Vlaams-Brabant, Belgium",50.868071,4.6939597
13711.0,Fixed Device,Kardinaal Mercierlaan,46,3001.0,Heverlee,Vlaams-Brabant,Accueil,Y,Non-Nee,,"46 Kardinaal Mercierlaan, Heverlee, Vlaams-Brabant, Belgium",50.868071,4.6939597
13712.0,Fixed Device,Kardinaal Mercierlaan,46,3001.0,Heverlee,Vlaams-Brabant,Accueil,Y,Non-Nee,,"46 Kardinaal Mercierlaan, Heverlee, Vlaams-Brabant, Belgium",50.868071,4.6939597
13900.0,Fixed Device,Geldenaaksebaan,327,3001.0,Leuven,Vlaams-Brabant,Inkomhal/balie,Y,Non-Nee,"Ma tot vrij van 8u30 tot 21u30, za en zon gesloten. Vakanties gesloten","327 Geldenaaksebaan, Leuven, Vlaams-Brabant, Belgium",50.8495093,4.724752100000001
13910.0,Fixed Device,Tiensestraat ,,3010.0,Leuven,Vlaams-Brabant,Inkomhal hoofdgebouw,N,Non-Nee,,"Tiensestraat, Leuven, Vlaams-Brabant, Belgium",50.8758104,4.7080615
13944.0,Fixed Device,"Gebouw 1026, Haasrode Reseach Park, Technologielaan",11,3001.0,Leuven,Vlaams-Brabant,"Voorzijde gebouw, verdieping 2, naast de lift",N,Non-Nee,"Maandag t.e.m. vrijdag, 9u00 tot 18u00","11 Gebouw 1026, Haasrode Reseach Park, Technologielaan, Leuven, Vlaams-Brabant, Belgium",50.8502816,4.727723999999999
14142.0,Fixed Device,Jan Vandeveldelaan,15,3010.0,Leuven,Vlaams-Brabant,in de sterilisatieruimte naast de balie,Y,Non-Nee,tijdens openingsuren: 09-17u,"15 Jan Vandeveldelaan, Leuven, Vlaams-Brabant, Belgium",50.8742581,4.725275
14162.0,Fixed Device,Blijde Inkomststraat ,21,3000.0,Leuven,Vlaams-Brabant,Inkom,N,Non-Nee,,"21 Blijde Inkomststraat, Leuven, Vlaams-Brabant, Belgium",50.877337,4.709544699999999
14297.0,Fixed Device,Groeneweg ,151,3001.0,Heverlee,Vlaams-Brabant,"Hogeschool UCLL, Campus Sociale School - inkom Blok-A",Y,Non-Nee,,"151 Groeneweg, Heverlee, Vlaams-Brabant, Belgium",50.8758335,4.6611883
14536.0,Fixed Device,Evenementenlaan,7,3001.0,Heverlee,Vlaams-Brabant,Receptie,Y,Non-Nee,Maandag tot vrijdag van 8 tot 17uur,"7 Evenementenlaan, Heverlee, Vlaams-Brabant, Belgium",50.8557424,4.731698199999999
14825.0,Fixed Device,Smoldersplein,5,3000.0,Leuven,Vlaams-Brabant,.,Y,Non-Nee,,"5 Smoldersplein, Leuven, Vlaams-Brabant, Belgium",50.8804127,4.7019874
15011.0,Fixed Device,Ambachtenlaan,12,3001.0,Heverlee,Vlaams-Brabant,"Doorgang tussen burelen en magazijn, langs de kant van het magazijn naast de wc s.",Y,Non-Nee,08u30-17u00 (vrijdag tot 15u00),"12 Ambachtenlaan, Heverlee, Vlaams-Brabant, Belgium",50.8510697,4.7183111
15211.0,Fixed Device,Interleuvenlaan ,,3001.0,Leuven,Vlaams-Brabant,EHBO lokaal (gelijkvloers),N,Non-Nee,Zondag 22:00u tem Vrijdag 22:00,"Interleuvenlaan, Leuven, Vlaams-Brabant, Belgium",50.8507187,4.7303674
15338.0,Fixed Device,Kapeldreef ,75,3001.0,Heverlee,Vlaams-Brabant,"Imec-CUB-gebouw, gelijkvloers",N,Oui-Ja,,"75 Kapeldreef, Heverlee, Vlaams-Brabant, Belgium",50.8655626,4.6765833
15340.0,Fixed Device,Kapeldreef,75,3001.0,Heverlee,Vlaams-Brabant,imec- imec1 inkomhal-gelikvloers,N,Oui-Ja,,"75 Kapeldreef, Heverlee, Vlaams-Brabant, Belgium",50.8655626,4.6765833
15682.0,Fixed Device,Philipssite,,3001.0,Leuven,Vlaams-Brabant,Centrale hall gebouw,Y,Non-Nee,8u30 - 12u van maandag tot vrijdag,"Philipssite, Leuven, Vlaams-Brabant, Belgium",50.8680749,4.7119704
16184.0,Fixed Device,Pellenbergstraat,160,3010.0,Kessel-Lo,Vlaams-Brabant,Gelijkvloers centrale inkom,Y,Oui-Ja,,"160 Pellenbergstraat, Kessel-Lo, Vlaams-Brabant, Belgium",50.8701412,4.7488553
10448.0,Fixed Device,Interleuvenlaan ,,3001.0,Heverlee,Vlaams-Brabant,"2de verdiep, bureau secretaresse",N,Non-Nee,9-17h,"Interleuvenlaan, Heverlee, Vlaams-Brabant, Belgium",50.8507187,4.7303674
